[{"OBJECT_NAME":"STARLINK-34577","OBJECT_ID":"2025-142Z","EPOCH":"2026-03-09T20:22:49.679904","MEAN_MOTION":14.95911073,"ECCENTRICITY":0.0002346,"INCLINATION":70.0008,"RA_OF_ASC_NODE":314.0623,"ARG_OF_PERICENTER":271.1669,"MEAN_ANOMALY":88.922,"EPHEMERIS_TYPE":0,"CLASSIFICATION_TYPE":"U","NORAD_CAT_ID":64719,"ELEMENT_SET_NO":999,"REV_AT_EPOCH":3951,"BSTAR":0.00017350703,"MEAN_MOTION_DOT":1.855e-5,"MEAN_MOTION_DDOT":0},{"OBJECT_NAME":"SNUGLITE-III","OBJECT_ID":"2025-274M","EPOCH":"2026-03-09T18:38:00.597984","MEAN_MOTION":14.93615044,"ECCENTRICITY":0.00147171,"INCLINATION":97.744,"RA_OF_ASC_NODE":359.6505,"ARG_OF_PERICENTER":357.0951,"MEAN_ANOMALY":3.0181,"EPHEMERIS_TYPE":0,"CLASSIFICATION_TYPE":"U","NORAD_CAT_ID":66661,"ELEMENT_SET_NO":999,"REV_AT_EPOCH":1539,"BSTAR":0.00024849196,"MEAN_MOTION_DOT":2.571e-5,"MEAN_MOTION_DDOT":0}]
