STARLINK-34577          
1 64719U 25142Z   26068.84918611  .00001855  00000+0  17351-3 0  9999
2 64719  70.0008 314.0623 0002346 271.1669  88.9220 14.95911073 39517
SNUGLITE-III            
1 66661U 25274M   26068.77639581  .00002571  00000+0  24849-3 0  9997
2 66661  97.7440 359.6505 0014717 357.0951   3.0181 14.93615044 15399
